NORAD_CAT_ID,OBJECT_NAME,OBJECT_TYPE,EPOCH,MEAN_MOTION,ECCENTRICITY,INCLINATION,RA_OF_ASC_NODE,ARG_OF_PERICENTER,MEAN_ANOMALY,BSTAR,MEAN_MOTION_DOT,MEAN_MOTION_DDOT,TLE_LINE0,TLE_LINE1,TLE_LINE2,SEMIMAJOR_AXIS,PERIOD,APOGEE,PERIGEE,DECAYED
52120.0,STARLINK-3534,PAYLOAD,2024-07-20 20:09:46,15.08844649,0.0001713,53.2153,238.4789,100.9679,259.1506,0.00013159,1.807e-05,0.0,0 STARLINK-3534,1 52120U 22029AJ  24202.84012252  .00001807  00000-0  13159-3 0  9997,2 52120  53.2153 238.4789 0001713 100.9679 259.1506 15.08844649130692,6917.866,95.437,540.916,538.546,0.0
52120.0,STARLINK-3534,PAYLOAD,2024-07-21 07:17:28,15.08839053,0.0001618,53.2156,236.3979,96.9598,263.1578,-2.0654e-05,-6.17e-06,0.0,0 STARLINK-3534,1 52120U 22029AJ  24203.30380786 -.00000617  00000-0 -20654-4 0  9998,2 52120  53.2156 236.3979 0001618  96.9598 263.1578 15.08839053130766,6917.883,95.438,540.868,538.629,0.0
52120.0,STARLINK-3534,PAYLOAD,2024-07-22 08:43:38,15.08840122,0.0001424,53.2162,231.641,102.2224,257.8927,4.8047e-05,4.77e-06,0.0,0 STARLINK-3534,1 52120U 22029AJ  24204.36364574  .00000477  00000-0  48047-4 0  9990,2 52120  53.2162 231.6410 0001424 102.2224 257.8927 15.08840122130928,6917.88,95.438,540.73,538.76,0.0
52120.0,STARLINK-3534,PAYLOAD,2024-07-23 08:34:25,15.0884084,0.0001279,53.216,227.1821,95.3898,264.724,0.00018333,2.631e-05,0.0,0 STARLINK-3534,1 52120U 22029AJ  24205.35724512  .00002631  00000-0  18333-3 0  9990,2 52120  53.2160 227.1821 0001279  95.3898 264.7240 15.08840840131078,6917.878,95.438,540.628,538.858,0.0
52120.0,STARLINK-3534,PAYLOAD,2024-07-24 05:14:30,15.08809454,0.0001213,53.2156,223.3159,98.3524,261.7606,-0.00013642,-2.456e-05,0.0,0 STARLINK-3534,1 52120U 22029AJ  24206.21840485 -.00002456  00000-0 -13642-3 0  9999,2 52120  53.2156 223.3159 0001213  98.3524 261.7606 15.08809454131206,6917.974,95.439,540.678,539.0,0.0
52120.0,STARLINK-3534,PAYLOAD,2024-07-24 06:49:52,15.08826219,0.0001166,53.2158,223.0192,101.0591,259.0532,1.2948e-05,-8.2e-07,0.0,0 STARLINK-3534,1 52120U 22029AJ  24206.28463308 -.00000082  00000-0  12948-4 0  9992,2 52120  53.2158 223.0192 0001166 101.0591 259.0532 15.08826219131212,6917.923,95.438,540.594,538.981,0.0
52120.0,STARLINK-3534,PAYLOAD,2024-07-25 06:40:39,15.08830868,0.0001418,53.2168,218.5588,114.0096,246.1045,8.9848e-05,1.142e-05,0.0,0 STARLINK-3534,1 52120U 22029AJ  24207.27823871  .00001142  00000-0  89848-4 0  9997,2 52120  53.2168 218.5588 0001418 114.0096 246.1045 15.08830868131362,6917.908,95.438,540.754,538.792,0.0
52120.0,STARLINK-3534,PAYLOAD,2024-07-25 09:51:26,15.08826232,0.0001114,53.2146,217.9638,98.5123,261.5996,0.00012791,1.748e-05,0.0,0 STARLINK-3534,1 52120U 22029AJ  24207.41072422  .00001748  00000-0  12791-3 0  9995,2 52120  53.2146 217.9638 0001114  98.5123 261.5996 15.08826232131385,6917.922,95.438,540.558,539.017,0.0
52120.0,STARLINK-3534,PAYLOAD,2024-07-26 08:06:50,15.08844673,0.0001008,53.2145,213.7989,93.7705,266.3402,0.00037565,5.696e-05,0.0,0 STARLINK-3534,1 52120U 22029AJ  24208.33808404  .00005696  00000-0  37565-3 0  9996,2 52120  53.2145 213.7989 0001008  93.7705 266.3402 15.08844673131522,6917.866,95.437,540.428,539.034,0.0
52120.0,STARLINK-3534,PAYLOAD,2024-07-26 17:39:09,15.08852171,0.0001006,53.2145,212.015,93.8593,266.2514,0.00046567,7.133e-05,0.0,0 STARLINK-3534,1 52120U 22029AJ  24208.73552148  .00007133  00000-0  46567-3 0  9991,2 52120  53.2145 212.0150 0001006  93.8593 266.2514 15.08852171131589,6917.843,95.437,540.404,539.012,0.0
52120.0,STARLINK-3534,PAYLOAD,2024-07-27 06:22:13,15.08865508,0.0001033,53.2142,209.6359,93.4369,266.6741,0.00056613,8.74e-05,0.0,0 STARLINK-3534,1 52120U 22029AJ  24209.26543374  .00008740  00000-0  56613-3 0  9999,2 52120  53.2142 209.6359 0001033  93.4369 266.6741 15.08865508131669,6917.802,95.436,540.382,538.953,0.0
52120.0,STARLINK-3534,PAYLOAD,2024-07-27 09:32:59,15.08868193,0.0001037,53.2142,209.0412,93.0591,267.052,0.00057123,8.822e-05,0.0,0 STARLINK-3534,1 52120U 22029AJ  24209.39791127  .00008822  00000-0  57123-3 0  9992,2 52120  53.2142 209.0412 0001037  93.0591 267.0520 15.08868193131685,6917.794,95.436,540.377,538.942,0.0
52120.0,STARLINK-3534,PAYLOAD,2024-07-28 04:37:35,15.08870047,0.0001107,53.2144,205.4728,89.0327,271.0792,0.00028331,4.228e-05,0.0,0 STARLINK-3534,1 52120U 22029AJ  24210.19277714  .00004228  00000-0  28331-3 0  9998,2 52120  53.2144 205.4728 0001107  89.0327 271.0792 15.08870047131808,6917.789,95.436,540.419,538.888,0.0
52120.0,STARLINK-3534,PAYLOAD,2024-07-28 09:23:44,15.08870834,0.0001056,53.2143,204.5801,93.0209,267.0904,0.0002571,3.81e-05,0.0,0 STARLINK-3534,1 52120U 22029AJ  24210.39149284  .00003810  00000-0  25710-3 0  9994,2 52120  53.2143 204.5801 0001056  93.0209 267.0904 15.08870834131833,6917.786,95.436,540.382,538.921,0.0
52120.0,STARLINK-3534,PAYLOAD,2024-07-29 04:28:22,15.08855473,0.0001239,53.2147,201.0088,100.5091,259.6041,-0.00015954,-2.827e-05,0.0,0 STARLINK-3534,1 52120U 22029AJ  24211.18636792 -.00002827  00000-0 -15954-3 0  9995,2 52120  53.2147 201.0088 0001239 100.5091 259.6041 15.08855473131956,6917.833,95.437,540.555,538.841,0.0
52120.0,STARLINK-3534,PAYLOAD,2024-07-29 09:14:31,15.08851678,0.0001136,53.2152,200.1204,97.9161,262.196,-9.0458e-05,-1.728e-05,0.0,0 STARLINK-3534,1 52120U 22029AJ  24211.38509042 -.00001728  00000-0 -90458-4 0  9996,2 52120  53.2152 200.1204 0001136  97.9161 262.1960 15.08851678131980,6917.845,95.437,540.496,538.924,0.0
52120.0,STARLINK-3534,PAYLOAD,2024-07-30 04:19:09,15.088491,0.0001167,53.216,196.5498,103.2323,256.8799,-3.7969e-05,-8.92e-06,0.0,0 STARLINK-3534,1 52120U 22029AJ  24212.17996949 -.00000892  00000-0 -37969-4 0  9999,2 52120  53.2160 196.5498 0001167 103.2323 256.8799 15.08849100132109,6917.853,95.437,540.525,538.91,0.0
52120.0,STARLINK-3534,PAYLOAD,2024-07-30 05:54:32,15.08847895,0.0001076,53.2157,196.2565,90.9686,269.143,-5.5338e-05,-1.169e-05,0.0,0 STARLINK-3534,1 52120U 22029AJ  24212.24621069 -.00001169  00000-0 -55338-4 0  9993,2 52120  53.2157 196.2565 0001076  90.9686 269.1430 15.08847895132119,6917.856,95.437,540.466,538.977,0.0
52120.0,STARLINK-3534,PAYLOAD,2024-07-30 15:26:50,15.08852554,0.000105,53.2153,194.4715,89.9422,270.1691,2.6063e-05,1.27e-06,0.0,0 STARLINK-3534,1 52120U 22029AJ  24212.64364293  .00000127  00000-0  26063-4 0  9994,2 52120  53.2153 194.4715 0001050  89.9422 270.1691 15.08852554132175,6917.842,95.437,540.433,538.981,0.0
52120.0,STARLINK-3534,PAYLOAD,2024-07-31 05:45:20,15.08830939,0.0001108,53.2159,191.7951,90.6075,269.5044,2.0817e-06,-2.55e-06,0.0,0 STARLINK-3534,1 52120U 22029AJ  24213.23981883 -.00000255  00000-0  20817-5 0  9995,2 52120  53.2159 191.7951 0001108  90.6075 269.5044 15.08830939132267,6917.908,95.438,540.54,539.007,0.0
52120.0,STARLINK-3534,PAYLOAD,2024-07-31 21:39:11,15.08838489,0.0001192,53.2169,188.8223,95.8959,264.2169,8.5466e-05,1.073e-05,0.0,0 STARLINK-3534,1 52120U 22029AJ  24213.90221426  .00001073  00000-0  85466-4 0  9997,2 52120  53.2169 188.8223 0001192  95.8959 264.2169 15.08838489132367,6917.885,95.438,540.575,538.925,0.0
52120.0,STARLINK-3534,PAYLOAD,2024-08-01 05:36:06,15.08841084,0.0001215,53.2169,187.3355,98.408,261.705,0.00010044,1.311e-05,0.0,0 STARLINK-3534,1 52120U 22029AJ  24214.23341357  .00001311  00000-0  10044-3 0  9994,2 52120  53.2169 187.3355 0001215  98.4080 261.7050 15.08841084132419,6917.877,95.437,540.583,538.902,0.0
52120.0,STARLINK-3534,PAYLOAD,2024-08-01 15:08:24,15.08859251,0.0001248,53.2175,185.5503,91.0812,269.0323,0.00020699,3.01e-05,0.0,0 STARLINK-3534,1 52120U 22029AJ  24214.63083887  .00003010  00000-0  20699-3 0  9994,2 52120  53.2175 185.5503 0001248  91.0812 269.0323 15.08859251132474,6917.822,95.436,540.55,538.823,0.0
52120.0,STARLINK-3534,PAYLOAD,2024-08-02 03:51:30,15.08821961,0.0001505,53.2166,183.1715,99.3231,260.7932,-0.00023211,-3.978e-05,0.0,0 STARLINK-3534,1 52120U 22029AJ  24215.16077447 -.00003978  00000-0 -23211-3 0  9996,2 52120  53.2166 183.1715 0001505  99.3231 260.7932 15.08821961132555,6917.936,95.439,540.842,538.759,0.0
52120.0,STARLINK-3534,PAYLOAD,2024-08-02 07:02:16,15.08827916,0.000149,53.2157,182.5766,78.2077,281.9082,-0.0004876,-8.037e-05,0.0,0 STARLINK-3534,1 52120U 22029AJ  24215.29324745 -.00008037  00000-0 -48760-3 0  9993,2 52120  53.2157 182.5766 0001490  78.2077 281.9082 15.08827916132570,6917.917,95.438,540.813,538.752,0.0
52120.0,STARLINK-3534,PAYLOAD,2024-08-02 14:59:12,15.08831226,0.0001418,53.2153,181.0899,86.6583,273.4571,-0.00049942,-8.225e-05,0.0,0 STARLINK-3534,1 52120U 22029AJ  24215.62444480 -.00008225  00000-0 -49942-3 0  9991,2 52120  53.2153 181.0899 0001418  86.6583 273.4571 15.08831226132626,6917.907,95.438,540.753,538.791,0.0
52120.0,STARLINK-3534,PAYLOAD,2024-08-03 06:53:03,15.08842025,0.0001353,53.2142,178.1142,89.7562,270.3585,0.0015397,0.00024303,0.0,0 STARLINK-3534,1 52120U 22029AJ  24216.28685111  .00024303  00000-0  15397-2 0  9991,2 52120  53.2142 178.1142 0001353  89.7562 270.3585 15.08842025132722,6917.874,95.437,540.675,538.803,0.0
52120.0,STARLINK-3534,PAYLOAD,2024-08-03 14:49:59,15.08852847,0.0001314,53.214,176.6261,91.7642,268.3501,0.0013386,0.00021087,0.0,0 STARLINK-3534,1 52120U 22029AJ  24216.61804945  .00021087  00000-0  13386-2 0  9998,2 52120  53.2140 176.6261 0001314  91.7642 268.3501 15.08852847132777,6917.841,95.437,540.615,538.797,0.0
52120.0,STARLINK-3534,PAYLOAD,2024-08-04 03:33:04,15.0883764,0.0001315,53.2148,174.2493,84.2561,275.8582,0.0011493,0.00018049,0.0,0 STARLINK-3534,1 52120U 22029AJ  24217.14797364  .00018049  00000-0  11493-2 0  9994,2 52120  53.2148 174.2493 0001315  84.2561 275.8582 15.08837640132859,6917.888,95.438,540.662,538.843,0.0
52120.0,STARLINK-3534,PAYLOAD,2024-08-04 14:40:46,15.08859482,0.0001468,53.215,172.167,86.5226,273.5934,0.0016255,0.0002569,0.0,0 STARLINK-3534,1 52120U 22029AJ  24217.61165108  .00025690  00000-0  16255-2 0  9992,2 52120  53.2150 172.1670 0001468  86.5226 273.5934 15.08859482132920,6917.821,95.436,540.701,538.67,0.0
